STARLINK-1716_new
1 16672C 20073C   21326.12795884  .00004950  00000-0  33157-3 0  3269
2 16672  53.0532  83.1619 0001177  88.1103 331.0042 15.06402579    13
STARLINK-1716_old
1 26672C 20073C   21325.17707605  .00003772  00000-0  25277-3 0  3251
2 26672  53.0533  87.4304 0001219  90.2858 209.3009 15.06394117    18
